STARLINK-31997          
1 60288U 24132L   26068.35407351 -.00001427  00000+0 -36062-4 0  9992
2 60288  53.1610  53.6553 0001354  80.5679 279.5475 15.30189170 91517
FLOCK 4BE-27            
1 60513U 24149AX  26068.75339182  .00011439  00000+0  36576-3 0  9992
2 60513  97.3862 150.6783 0002732 305.8980  54.2008 15.32593322 86906
